[{"OBJECT_NAME":"STARLINK-6235","OBJECT_ID":"2023-088AY","EPOCH":"2026-03-09T22:00:01.999584","MEAN_MOTION":15.06741931,"ECCENTRICITY":0.00010958,"INCLINATION":43.0008,"RA_OF_ASC_NODE":92.9262,"ARG_OF_PERICENTER":310.061,"MEAN_ANOMALY":184.0636,"EPHEMERIS_TYPE":0,"CLASSIFICATION_TYPE":"U","NORAD_CAT_ID":57094,"ELEMENT_SET_NO":999,"REV_AT_EPOCH":577,"BSTAR":0.0034794355,"MEAN_MOTION_DOT":0.00052796,"MEAN_MOTION_DDOT":0},{"OBJECT_NAME":"CZ-6A DEB","OBJECT_ID":"2024-140QV","EPOCH":"2026-03-09T14:50:36.844800","MEAN_MOTION":14.79717429,"ECCENTRICITY":0.0126492,"INCLINATION":89.1682,"RA_OF_ASC_NODE":293.0345,"ARG_OF_PERICENTER":169.4874,"MEAN_ANOMALY":190.9042,"EPHEMERIS_TYPE":0,"CLASSIFICATION_TYPE":"U","NORAD_CAT_ID":61151,"ELEMENT_SET_NO":999,"REV_AT_EPOCH":8312,"BSTAR":0.0011388,"MEAN_MOTION_DOT":9.83e-5,"MEAN_MOTION_DDOT":0}]
